ONEWEB-0149             
1 48058U 21025S   23059.40981434 -.00000235  00000+0 -67712-3 0  9994
2 48058  87.9077 199.6500 0001962  94.9392 265.1961 13.13471304 95336
ONEWEB-0149             
1 48058U 21025S   23059.94305752 -.00000315  00000+0 -89743-3 0  9993
2 48058  87.9075 199.5443 0001960  94.6458 265.4895 13.13471355 95411
ONEWEB-0149             
1 48058U 21025S   23060.85718863 -.00000166  00000+0 -48972-3 0  9999
2 48058  87.9075 199.3636 0001956  93.6391 266.4962 13.13470890 95524
ONEWEB-0149             
1 48058U 21025S   23061.08572027  .00000053  00000+0  11093-3 0  9992
2 48058  87.9076 199.3185 0001940  93.4115 266.7236 13.13471778 95566
ONEWEB-0149             
1 48058U 21025S   23061.39041916  .00001426  00000+0  38680-2 0  9999
2 48058  87.9084 199.2593 0002253  93.0860 267.0527 13.13483208 95599
ONEWEB-0149             
1 48058U 21025S   23061.39041916  .00001426  00000+0  38680-2 0  9999
2 48058  87.9084 199.2593 0002253  93.0860 267.0527 13.13483208 95601
ONEWEB-0149             
1 48058U 21025S   23062.38073431  .00000219  00000+0  56477-3 0  9990
2 48058  87.9072 199.0620 0002115  90.3707 269.7664 13.13473527 95721
ONEWEB-0149             
1 48058U 21025S   23062.38073431  .00000219  00000+0  56477-3 0  9990
2 48058  87.9072 199.0620 0002115  90.3707 269.7664 13.13473527 95732
ONEWEB-0149             
1 48058U 21025S   23062.83780573 -.00000381  00000+0 -10778-2 0  9997
2 48058  87.9071 198.9716 0002013  90.3450 269.7909 13.13468036 95783
